IXPE                    
1 49954U 21121A   24094.25001157  .00006288  00000+0  46130-3 0  9998
2 49954   0.2295 229.6071 0009554 249.3714 359.0868 14.97125678  5690
